[{"OBJECT_NAME":"SATELIOT_4","OBJECT_ID":"2024-149BX","EPOCH":"2026-03-09T17:48:54.333792","MEAN_MOTION":14.96254023,"ECCENTRICITY":0.00023903,"INCLINATION":97.6789,"RA_OF_ASC_NODE":145.1106,"ARG_OF_PERICENTER":45.2073,"MEAN_ANOMALY":314.9342,"EPHEMERIS_TYPE":0,"CLASSIFICATION_TYPE":"U","NORAD_CAT_ID":60537,"ELEMENT_SET_NO":999,"REV_AT_EPOCH":8510,"BSTAR":0.00026256084,"MEAN_MOTION_DOT":2.907e-5,"MEAN_MOTION_DDOT":0},{"OBJECT_NAME":"STARLINK-34335","OBJECT_ID":"2025-126U","EPOCH":"2026-03-09T22:46:15.672864","MEAN_MOTION":14.98322549,"ECCENTRICITY":0.00032243,"INCLINATION":70.0025,"RA_OF_ASC_NODE":33.6858,"ARG_OF_PERICENTER":265.9862,"MEAN_ANOMALY":94.0928,"EPHEMERIS_TYPE":0,"CLASSIFICATION_TYPE":"U","NORAD_CAT_ID":64362,"ELEMENT_SET_NO":999,"REV_AT_EPOCH":4072,"BSTAR":0.0010766821,"MEAN_MOTION_DOT":0.00012775,"MEAN_MOTION_DDOT":0}]
